{
  "norad_id": 52699,
  "name": "STARLINK-3987",
  "history": [
    {
      "epoch": "2026-03-28T07:39:18.309024Z",
      "apogee_km": 540.6481173985867,
      "perigee_km": 538.8534789459864,
      "latitude_deg": 9.569270046813e-06,
      "longitude_deg": 114.95310061100759,
      "height_km": 540.5504647759528,
      "semi_major_axis_km": 6917.887798172286,
      "eccentricity": 0.00012971,
      "inclination_deg": 53.2169,
      "raan_deg": 55.5205,
      "arg_perigee_deg": 83.8531,
      "mean_anomaly_deg": 276.2609,
      "mean_motion_rev_day": 15.08837576
    },
    {
      "epoch": "2026-03-29T04:19:18.020352Z",
      "apogee_km": 540.6079310673358,
      "perigee_km": 538.7954573294546,
      "latitude_deg": -6.0142161655395485e-05,
      "longitude_deg": 160.23940485798184,
      "height_km": 540.5241180602764,
      "semi_major_axis_km": 6917.8386941983945,
      "eccentricity": 0.000131,
      "inclination_deg": 53.2179,
      "raan_deg": 51.6544,
      "arg_perigee_deg": 85.3526,
      "mean_anomaly_deg": 274.7615,
      "mean_motion_rev_day": 15.08853641
    }
  ]
}